COSMOS 2575             
1 58929U 24026A   26068.78497853  .00040851  00000+0  27112-3 0  9993
2 58929  96.6330 317.2894 0001531  67.5645 292.5784 15.75382154119985
STARLINK-11450 [DTC]    
1 62518U 25004H   26068.21694347  .00201925  00000+0  15396-2 0  9995
2 62518  43.0011  73.6252 0002525 295.4446  64.6160 15.70833528 67138
