[{"OBJECT_NAME":"COSMOS 2575","OBJECT_ID":"2024-026A","EPOCH":"2026-03-09T18:50:22.144992","MEAN_MOTION":15.75382155,"ECCENTRICITY":0.0001531,"INCLINATION":96.633,"RA_OF_ASC_NODE":317.2894,"ARG_OF_PERICENTER":67.5645,"MEAN_ANOMALY":292.5784,"EPHEMERIS_TYPE":0,"CLASSIFICATION_TYPE":"U","NORAD_CAT_ID":58929,"ELEMENT_SET_NO":999,"REV_AT_EPOCH":11998,"BSTAR":0.00027111555,"MEAN_MOTION_DOT":0.00040851,"MEAN_MOTION_DDOT":0},{"OBJECT_NAME":"STARLINK-11450 [DTC]","OBJECT_ID":"2025-004H","EPOCH":"2026-03-09T05:12:23.915808","MEAN_MOTION":15.70833528,"ECCENTRICITY":0.00025257,"INCLINATION":43.0011,"RA_OF_ASC_NODE":73.6252,"ARG_OF_PERICENTER":295.4446,"MEAN_ANOMALY":64.616,"EPHEMERIS_TYPE":0,"CLASSIFICATION_TYPE":"U","NORAD_CAT_ID":62518,"ELEMENT_SET_NO":999,"REV_AT_EPOCH":6713,"BSTAR":0.0015395604,"MEAN_MOTION_DOT":0.00201925,"MEAN_MOTION_DDOT":0}]
